sat01099
1 01099U 64083G   20046.84246451  .00000068  00000-0  75992-4 0  9996
2 01099  89.9277 168.0031 0040109 271.7511 261.6960 13.61933569667926
